[{"OBJECT_NAME":"STARLINK-6096","OBJECT_ID":"2023-046L","EPOCH":"2026-03-09T22:00:01.999584","MEAN_MOTION":15.05512565,"ECCENTRICITY":0.00020255,"INCLINATION":43.0001,"RA_OF_ASC_NODE":157.7071,"ARG_OF_PERICENTER":261.3426,"MEAN_ANOMALY":192.0101,"EPHEMERIS_TYPE":0,"CLASSIFICATION_TYPE":"U","NORAD_CAT_ID":56103,"ELEMENT_SET_NO":999,"REV_AT_EPOCH":578,"BSTAR":0.00036896386,"MEAN_MOTION_DOT":5.191e-5,"MEAN_MOTION_DDOT":0},{"OBJECT_NAME":"OBJECT H","OBJECT_ID":"2022-023H","EPOCH":"2026-03-09T22:57:41.313888","MEAN_MOTION":15.21889274,"ECCENTRICITY":0.00933376,"INCLINATION":63.6345,"RA_OF_ASC_NODE":356.5929,"ARG_OF_PERICENTER":305.1945,"MEAN_ANOMALY":54.0457,"EPHEMERIS_TYPE":0,"CLASSIFICATION_TYPE":"U","NORAD_CAT_ID":51953,"ELEMENT_SET_NO":999,"REV_AT_EPOCH":22114,"BSTAR":0.00043867493,"MEAN_MOTION_DOT":0.00011084,"MEAN_MOTION_DDOT":0}]
